NORAD_CAT_ID,OBJECT_NAME,OBJECT_TYPE,EPOCH,MEAN_MOTION,ECCENTRICITY,INCLINATION,RA_OF_ASC_NODE,ARG_OF_PERICENTER,MEAN_ANOMALY,BSTAR,MEAN_MOTION_DOT,MEAN_MOTION_DDOT,TLE_LINE0,TLE_LINE1,TLE_LINE2,SEMIMAJOR_AXIS,PERIOD,APOGEE,PERIGEE,DECAYED
53819.0,STARLINK-4738,PAYLOAD,2023-12-23 06:08:47,15.08842389,0.0001644,53.2172,329.0277,80.2116,279.9062,0.00025908,3.838e-05,0.0,0 STARLINK-4738,1 53819U 22114B   23357.25610088  .00003838  00000-0  25908-3 0  9995,2 53819  53.2172 329.0277 0001644  80.2116 279.9062 15.08842389 70393,6917.873,95.437,540.875,538.601,0.0
53819.0,STARLINK-4738,PAYLOAD,2023-12-23 22:02:39,15.08831782,0.0001996,53.2174,326.0601,67.3332,292.7871,0.0010314,0.00016161,0.0,0 STARLINK-4738,1 53819U 22114B   23357.91851101  .00016161  00000-0  10314-2 0  9998,2 53819  53.2174 326.0601 0001996  67.3332 292.7871 15.08831782 71037,6917.906,95.438,541.151,538.39,0.0
53819.0,STARLINK-4738,PAYLOAD,2023-12-24 07:34:56,15.08860582,0.0001508,53.2161,324.2664,85.5857,274.5307,0.00060563,9.369e-05,0.0,0 STARLINK-4738,1 53819U 22114B   23358.31593514  .00009369  00000-0  60563-3 0  9998,2 53819  53.2161 324.2664 0001508  85.5857 274.5307 15.08860582 70553,6917.817,95.436,540.726,538.639,0.0
53819.0,STARLINK-4738,PAYLOAD,2023-12-24 21:53:25,15.08842282,0.0001242,53.2161,321.5924,90.1981,269.9154,9.4735e-05,1.22e-05,0.0,0 STARLINK-4738,1 53819U 22114B   23358.91209947  .00001220  00000-0  94735-4 0  9995,2 53819  53.2161 321.5924 0001242  90.1981 269.9154 15.08842282 71182,6917.873,95.437,540.598,538.879,0.0
53819.0,STARLINK-4738,PAYLOAD,2023-12-25 02:39:34,15.08849461,0.0001705,53.2174,320.7018,94.3134,265.8053,0.00018478,2.655e-05,0.0,0 STARLINK-4738,1 53819U 22114B   23359.11081636  .00002655  00000-0  18478-3 0  9993,2 53819  53.2174 320.7018 0001705  94.3134 265.8053 15.08849461 70673,6917.851,95.437,540.896,538.537,0.0
53819.0,STARLINK-4738,PAYLOAD,2023-12-25 07:25:43,15.08859413,0.0001557,53.217,319.8044,107.039,253.0772,0.0004603,7.049e-05,0.0,0 STARLINK-4738,1 53819U 22114B   23359.30953143  .00007049  00000-0  46030-3 0  9992,2 53819  53.2170 319.8044 0001557 107.0390 253.0772 15.08859413 71247,6917.821,95.436,540.763,538.609,0.0
53819.0,STARLINK-4738,PAYLOAD,2023-12-26 04:05:45,15.08840102,0.0001512,53.2165,315.9388,95.1387,264.9778,0.00035724,5.402e-05,0.0,0 STARLINK-4738,1 53819U 22114B   23360.17066003  .00005402  00000-0  35724-3 0  9998,2 53819  53.2165 315.9388 0001512  95.1387 264.9778 15.08840102 70839,6917.88,95.438,540.791,538.699,0.0
53819.0,STARLINK-4738,PAYLOAD,2023-12-26 07:16:31,15.0884341,0.0001454,53.2166,315.3438,93.7705,266.3453,0.00051635,7.94e-05,0.0,0 STARLINK-4738,1 53819U 22114B   23360.30314010  .00007940  00000-0  51635-3 0  9995,2 53819  53.2166 315.3438 0001454  93.7705 266.3453 15.08843410 71396,6917.87,95.437,540.741,538.729,0.0
53819.0,STARLINK-4738,PAYLOAD,2023-12-27 03:56:32,15.08851535,0.0001562,53.217,311.476,92.3009,267.8162,0.00056618,8.737e-05,0.0,0 STARLINK-4738,1 53819U 22114B   23361.16425935  .00008737  00000-0  56618-3 0  9990,2 53819  53.2170 311.4760 0001562  92.3009 267.8162 15.08851535 71523,6917.845,95.437,540.791,538.63,0.0
53819.0,STARLINK-4738,PAYLOAD,2023-12-27 21:25:46,15.08841306,0.0001511,53.2172,308.2058,96.6857,263.4307,0.00011765,1.585e-05,0.0,0 STARLINK-4738,1 53819U 22114B   23361.89290139  .00001585  00000-0  11765-3 0  9994,2 53819  53.2172 308.2058 0001511  96.6857 263.4307 15.08841306 71631,6917.876,95.437,540.787,538.696,0.0
53819.0,STARLINK-4738,PAYLOAD,2023-12-28 02:11:56,15.08839359,0.0001319,53.2171,307.3141,93.3903,266.724,7.0745e-05,8.38e-06,0.0,0 STARLINK-4738,1 53819U 22114B   23362.09162213  .00000838  00000-0  70745-4 0  9992,2 53819  53.2171 307.3141 0001319  93.3903 266.7240 15.08839359 71126,6917.882,95.438,540.66,538.835,0.0
53819.0,STARLINK-4738,PAYLOAD,2023-12-29 03:38:06,15.08845527,0.0001293,53.2165,302.5586,81.6523,278.4616,0.00016657,2.364e-05,0.0,0 STARLINK-4738,1 53819U 22114B   23363.15146144  .00002364  00000-0  16657-3 0  9992,2 53819  53.2165 302.5586 0001293  81.6523 278.4616 15.08845527 71286,6917.863,95.437,540.623,538.834,0.0
53819.0,STARLINK-4738,PAYLOAD,2023-12-29 05:13:29,15.08853858,0.0001281,53.2164,302.2596,87.3531,272.7608,0.00046432,7.112e-05,0.0,0 STARLINK-4738,1 53819U 22114B   23363.21769742  .00007112  00000-0  46432-3 0  9994,2 53819  53.2164 302.2596 0001281  87.3531 272.7608 15.08853858 71297,6917.838,95.437,540.589,538.817,0.0
53819.0,STARLINK-4738,PAYLOAD,2023-12-30 03:28:53,15.08846637,0.0001383,53.2169,298.0996,85.6029,274.5121,0.00024456,3.607e-05,0.0,0 STARLINK-4738,1 53819U 22114B   23364.14506252  .00003607  00000-0  24456-3 0  9999,2 53819  53.2169 298.0996 0001383  85.6029 274.5121 15.08846637 71437,6917.86,95.437,540.682,538.768,0.0
53819.0,STARLINK-4738,PAYLOAD,2023-12-30 05:04:16,15.08850452,0.0001347,53.2168,297.7992,91.0306,269.084,0.00030937,4.641e-05,0.0,0 STARLINK-4738,1 53819U 22114B   23364.21130031  .00004641  00000-0  30937-3 0  9995,2 53819  53.2168 297.7992 0001347  91.0306 269.0840 15.08850452 71984,6917.848,95.437,540.645,538.782,0.0
53819.0,STARLINK-4738,PAYLOAD,2023-12-30 19:22:45,15.08843659,0.0001624,53.2159,295.126,92.8192,267.2986,0.00011152,1.487e-05,0.0,0 STARLINK-4738,1 53819U 22114B   23364.80746725  .00001487  00000-0  11152-3 0  9996,2 53819  53.2159 295.1260 0001624  92.8192 267.2986 15.08843659 71537,6917.869,95.437,540.858,538.611,0.0
53819.0,STARLINK-4738,PAYLOAD,2023-12-31 04:55:03,15.08847715,0.0001561,53.2166,293.3405,103.0758,257.0408,0.00017181,2.448e-05,0.0,0 STARLINK-4738,1 53819U 22114B   23365.20490430  .00002448  00000-0  17181-3 0  9996,2 53819  53.2166 293.3405 0001561 103.0758 257.0408 15.08847715 72139,6917.857,95.437,540.802,538.642,0.0
53819.0,STARLINK-4738,PAYLOAD,2024-01-01 01:35:04,15.0884018,0.000184,53.2172,289.4742,115.0402,245.0781,8.3996e-05,1.049e-05,0.0,0 STARLINK-4738,1 53819U 22114B   24001.06602609  .00001049  00000-0  83996-4 0  9995,2 53819  53.2172 289.4742 0001840 115.0402 245.0781 15.08840180 71729,6917.88,95.438,541.018,538.472,0.0
53819.0,STARLINK-4738,PAYLOAD,2024-01-01 22:15:05,15.08847462,0.0001797,53.2163,285.6044,113.3941,246.724,0.0002324,3.413e-05,0.0,0 STARLINK-4738,1 53819U 22114B   24001.92714424  .00003413  00000-0  23240-3 0  9991,2 53819  53.2163 285.6044 0001797 113.3941 246.7240 15.08847462 72394,6917.858,95.437,540.966,538.479,0.0
53819.0,STARLINK-4738,PAYLOAD,2024-01-02 01:25:51,15.08856009,0.0001659,53.2167,285.0139,95.8265,264.2916,0.00038609,5.865e-05,0.0,0 STARLINK-4738,1 53819U 22114B   24002.05962152  .00005865  00000-0  38609-3 0  9997,2 53819  53.2167 285.0139 0001659  95.8265 264.2916 15.08856009 71871,6917.831,95.437,540.844,538.549,0.0
53819.0,STARLINK-4738,PAYLOAD,2024-01-02 04:36:37,15.08859724,0.0001642,53.216,284.4193,92.5779,267.5401,0.00048595,7.458e-05,0.0,0 STARLINK-4738,1 53819U 22114B   24002.19210019  .00007458  00000-0  48595-3 0  9995,2 53819  53.2160 284.4193 0001642  92.5779 267.5401 15.08859724 72438,6917.82,95.436,540.821,538.549,0.0
53819.0,STARLINK-4738,PAYLOAD,2024-01-02 22:05:52,15.08846382,0.0001622,53.215,281.1439,110.8948,249.2218,0.00014412,2.007e-05,0.0,0 STARLINK-4738,1 53819U 22114B   24002.92074158  .00002007  00000-0  14412-3 0  9994,2 53819  53.2150 281.1439 0001622 110.8948 249.2218 15.08846382 72545,6917.861,95.437,540.848,538.604,0.0
53819.0,STARLINK-4738,PAYLOAD,2024-01-02 23:41:15,15.08846758,0.0001601,53.2154,280.8461,113.1751,246.9409,0.00016289,2.306e-05,0.0,0 STARLINK-4738,1 53819U 22114B   24002.98698118  .00002306  00000-0  16289-3 0  9994,2 53819  53.2154 280.8461 0001601 113.1751 246.9409 15.08846758 72010,6917.86,95.437,540.832,538.617,0.0
53819.0,STARLINK-4738,PAYLOAD,2024-01-03 04:27:24,15.0884346,0.0001411,53.2156,279.9543,95.9363,264.179,6.0684e-05,6.78e-06,0.0,0 STARLINK-4738,1 53819U 22114B   24003.18570172  .00000678  00000-0  60684-4 0  9995,2 53819  53.2156 279.9543 0001411  95.9363 264.1790 15.08843460 72581,6917.87,95.437,540.711,538.759,0.0
53819.0,STARLINK-4738,PAYLOAD,2024-01-03 21:56:39,15.08840149,0.0001734,53.2158,276.6835,114.5757,245.5416,-1.7253e-05,-5.63e-06,0.0,0 STARLINK-4738,1 53819U 22114B   24003.91434322 -.00000563  00000-0 -17253-4 0  9991,2 53819  53.2158 276.6835 0001734 114.5757 245.5416 15.08840149 72695,6917.88,95.438,540.944,538.545,0.0
53819.0,STARLINK-4738,PAYLOAD,2024-01-04 01:07:25,15.08840637,0.0001542,53.2161,276.09,102.0744,258.0421,-6.1646e-05,-1.269e-05,0.0,0 STARLINK-4738,1 53819U 22114B   24004.04682406 -.00001269  00000-0 -61646-4 0  9993,2 53819  53.2161 276.0900 0001542 102.0744 258.0421 15.08840637 72171,6917.878,95.438,540.81,538.677,0.0
53819.0,STARLINK-4738,PAYLOAD,2024-01-04 04:18:11,15.08838586,0.0001659,53.2165,275.4964,108.2099,251.9073,-5.7409e-05,-1.202e-05,0.0,0 STARLINK-4738,1 53819U 22114B   24004.17930498 -.00001202  00000-0 -57409-4 0  9993,2 53819  53.2165 275.4964 0001659 108.2099 251.9073 15.08838586 72735,6917.885,95.438,540.897,538.602,0.0
53819.0,STARLINK-4738,PAYLOAD,2024-01-04 21:47:26,15.08840064,0.0001592,53.2165,272.2259,107.5208,252.5958,0.00010089,1.318e-05,0.0,0 STARLINK-4738,1 53819U 22114B   24004.90794481  .00001318  00000-0  10089-3 0  9992,2 53819  53.2165 272.2259 0001592 107.5208 252.5958 15.08840064 72842,6917.88,95.438,540.847,538.644,0.0
53819.0,STARLINK-4738,PAYLOAD,2024-01-05 02:33:35,15.08844948,0.0001555,53.2165,271.3334,98.6592,261.4576,0.00016396,2.323e-05,0.0,0 STARLINK-4738,1 53819U 22114B   24005.10666270  .00002323  00000-0  16396-3 0  9993,2 53819  53.2165 271.3334 0001555  98.6592 261.4576 15.08844948 72335,6917.865,95.437,540.806,538.655,0.0
53819.0,STARLINK-4738,PAYLOAD,2024-01-05 21:38:14,15.08835341,0.0001712,53.2163,267.7668,82.3153,277.8034,2.3907e-05,9.2e-07,0.0,0 STARLINK-4738,1 53819U 22114B   24005.90155125  .00000092  00000-0  23907-4 0  9991,2 53819  53.2163 267.7668 0001712  82.3153 277.8034 15.08835341 72999,6917.895,95.438,540.944,538.575,0.0
